{"spkid": "50792453", "covariance": {"epoch": "2458786.5", "labels": ["e", "q", "tp", "node", "peri", "i"], "elements": [{"title": "eccentricity", "value": ".4703117282176058", "units": null, "sigma": 6.94285936810953e-08, "name": "e", "label": "e"}, {"units": "au", "title": "perihelion distance", "value": ".8672914034329935", "name": "q", "sigma": 1.03053152788204e-07, "label": "q"}, {"units": "TDB", "title": "time of perihelion passage", "value": "2458928.812076208777", "name": "tp", "sigma": 1.30752389606514e-05, "label": "tp"}, {"label": "node", "value": "96.06495998469772", "title": "longitude of the ascending node", "units": "deg", "sigma": 2.71581069679058e-05, "name": "om"}, {"label": "peri", "title": "argument of perihelion", "value": "67.10753160872827", "units": "deg", "sigma": 2.74760348414021e-05, "name": "w"}, {"label": "i", "units": "deg", "title": "inclination", "value": "7.266577088379268", "name": "i", "sigma": 9.11710586310029e-06}], "data": [["4.820329620534621E-15", "-7.15184524396148E-15", "1.135127326261934E-13", "-1.202655934143137E-13", "-3.693472834323062E-13", "-2.101084539145113E-13"], ["-7.15184524396148E-15", "1.061995229958888E-14", "-1.529293855941862E-13", "1.837596593317592E-13", "5.579394612541995E-13", "3.054532070288475E-13"], ["1.135127326261934E-13", "-1.529293855941862E-13", "1.709618738781373E-10", "8.303037961457432E-11", "8.2008278165152E-11", "-9.321816934193434E-11"], ["-1.202655934143137E-13", "1.837596593317592E-13", "8.303037961457432E-11", "7.375627740802131E-10", "-6.274916628826187E-10", "-1.415880665439542E-10"], ["-3.693472834323062E-13", "5.579394612541995E-13", "8.2008278165152E-11", "-6.274916628826187E-10", "7.549324906059411E-10", "6.735791983075893E-11"], ["-2.101084539145113E-13", "3.054532070288475E-13", "-9.321816934193434E-11", "-1.415880665439542E-10", "6.735791983075893E-11", "8.312161931897762E-11"]]}, "elements": [{"label": "e", "name": "e", "sigma": "6.953E-8", "units": null, "title": "eccentricity", "value": ".4706550200732297"}, {"label": "a", "units": "au", "title": "semi-major axis", "value": "1.637670329571117", "name": "a", "sigma": "2.0618E-8"}, {"name": "q", "sigma": "1.0344E-7", "units": "au", "title": "perihelion distance", "value": ".8668925677334901", "label": "q"}, {"label": "i", "title": "inclination; angle with respect to x-y ecliptic plane", "value": "7.267098826754735", "units": "deg", "sigma": "9.1088E-6", "name": "i"}, {"label": "node", "units": "deg", "title": "longitude of the ascending node", "value": "95.94244468321317", "name": "om", "sigma": "2.7134E-5"}, {"name": "w", "sigma": "2.7469E-5", "units": "deg", "title": "argument of perihelion", "value": "67.25988725384481", "label": "peri"}, {"label": "M", "title": "mean anomaly", "value": "348.3130849120151", "units": "deg", "name": "ma", "sigma": "2.2691E-5"}, {"label": "tp", "name": "tp", "sigma": "4.8704E-5", "value": "2461225.350523153414", "title": "time of perihelion passage", "units": "TDB"}, {"name": "per", "sigma": "1.4456E-5", "units": "d", "title": "sidereal orbital period", "value": "765.4875788758343", "label": "period"}, {"label": "n", "name": "n", "sigma": "8.8815E-9", "title": "mean motion", "value": ".4702884931571094", "units": "deg/d"}, {"label": "Q", "name": "ad", "sigma": "3.0323E-8", "units": "au", "value": "2.408448091408744", "title": "aphelion distance"}], "epoch": "2461200.5"}